IRIDIUM 7 [-]           
1 24793U 97020B   23339.62628890  .00000522  00000+0  17668-3 0  9993
2 24793  86.3977  51.2801 0002206 101.0659 259.0785 14.35001726391622
IRIDIUM 5 [-]           
1 24795U 97020D   23339.95379132  .00005639  00000+0  56314-3 0  9998
2 24795  86.3929 339.4769 0125216 332.3124  27.1468 14.85557739402213
IRIDIUM 4 [-]           
1 24796U 97020E   23339.26945312  .00000526  00000+0  17466-3 0  9997
2 24796  86.3974  48.6791 0001960  96.0553 264.0867 14.35909908392090
IRIDIUM 914 [-]         
1 24836U 97030A   23339.26378212  .00000753  00000+0  23411-3 0  9991
2 24836  86.3948  58.9209 0000393 135.5552 224.5679 14.39735736526531
IRIDIUM 16 [-]          
1 24841U 97030F   23339.71919607  .00000713  00000+0  23116-3 0  9994
2 24841  86.4036  80.2137 0004219  99.6492 260.5183 14.37621981386592
IRIDIUM 911 [-]         
1 24842U 97030G   23339.69413243  .00001008  00000+0  27611-3 0  9999
2 24842  86.4462  79.5125 0015295 154.7518 205.4435 14.46175911394181
IRIDIUM 17 [-]          
1 24870U 97034B   23339.42625369  .00000828  00000+0  27444-3 0  9992
2 24870  86.3948 109.9987 0003402  72.0230 288.1338 14.36712222383183
IRIDIUM 920 [-]         
1 24871U 97034C   23339.38209339  .00000814  00000+0  24984-3 0  9994
2 24871  86.3971  90.5451 0013333 122.9357 237.3127 14.40436322385969
